NORAD_CAT_ID,OBJECT_NAME,OBJECT_TYPE,EPOCH,MEAN_MOTION,ECCENTRICITY,INCLINATION,RA_OF_ASC_NODE,ARG_OF_PERICENTER,MEAN_ANOMALY,BSTAR,MEAN_MOTION_DOT,MEAN_MOTION_DDOT,TLE_LINE0,TLE_LINE1,TLE_LINE2,SEMIMAJOR_AXIS,PERIOD,APOGEE,PERIGEE,DECAYED
52136.0,STARLINK-3720,PAYLOAD,2022-06-29 22:00:00,15.14913076,0.0001396999999999,53.2176,4.0636,74.2985,61.2975,-0.041005,-0.00719861,0.0,0 STARLINK-3720,1 52136U 22029BA  22180.91667824 -.00719861  00000-0 -41005-1 0  9993,2 52136  53.2176   4.0636 0001397  74.2985  61.2975 15.14913076 17316,6899.379,95.055,522.2080000000002,520.281,0.0
52136.0,STARLINK-3720,PAYLOAD,2022-06-30 14:00:01,15.13893992,0.0001467,53.2177,1.0458,70.4948,101.6568,-0.042289,-0.00721162,0.0,0 STARLINK-3720,1 52136U 22029BA  22181.58334491 -.00721162  00000-0 -42289-1 0  9990,2 52136  53.2177   1.0458 0001467  70.4948 101.6568 15.13893992  1303,6902.475,95.119,525.3530000000002,523.328,0.0
52136.0,STARLINK-3720,PAYLOAD,2022-06-30 22:00:00,15.13381678,0.0001484,53.2176,359.541,66.7717,122.7381,-0.042643,-0.0071705,0.0,0 STARLINK-3720,1 52136U 22029BA  22181.91667824 -.00717050  00000-0 -42643-1 0  9991,2 52136  53.2176 359.5410 0001484  66.7717 122.7381 15.13381678 17466,6904.033,95.151,526.923,524.873,0.0
52136.0,STARLINK-3720,PAYLOAD,2022-07-01 14:00:01,15.123637699999998,0.000146,53.2176,356.5304,71.583,150.8051,-0.044111,-0.00720542,0.0,0 STARLINK-3720,1 52136U 22029BA  22182.58334491 -.00720542  00000-0 -44111-1 0  9998,2 52136  53.2176 356.5304 0001460  71.5830 150.8051 15.12363770  1303,6907.130999999999,95.215,530.004,527.987,0.0
52136.0,STARLINK-3720,PAYLOAD,2022-07-01 22:00:00,15.11851467,0.0001375999999999,53.2175,355.029,87.1676,150.7403,-0.044456,-0.0071613999999999,0.0,0 STARLINK-3720,1 52136U 22029BA  22182.91667824 -.00716140  00000-0 -44456-1 0  9995,2 52136  53.2175 355.0290 0001376  87.1676 150.7403 15.11851467 17612,6908.691,95.247,531.506,529.605,0.0
52136.0,STARLINK-3720,PAYLOAD,2022-07-02 14:00:01,15.10833846,0.0001404,53.2175,352.0256,74.6577,192.4518,-0.046027,-0.0072039,0.0,0 STARLINK-3720,1 52136U 22029BA  22183.58334491 -.00720390  00000-0 -46027-1 0  9998,2 52136  53.2175 352.0256 0001404  74.6577 192.4518 15.10833846  1303,6911.793000000002,95.312,534.628,532.687,0.0
52136.0,STARLINK-3720,PAYLOAD,2022-07-02 22:00:00,15.10321891,0.0001357,53.2174,350.5276,74.01,206.7808,-0.046408,-0.00716381,0.0,0 STARLINK-3720,1 52136U 22029BA  22183.91667824 -.00716381  00000-0 -46408-1 0  9992,2 52136  53.2174 350.5276 0001357  74.0100 206.7808 15.10321891  1303,6913.355,95.344,536.158,534.281,0.0
52136.0,STARLINK-3720,PAYLOAD,2022-07-03 14:00:01,15.0922014,0.0001464,53.2175,347.5308,73.133,233.1948,-0.027087,-0.00411661,0.0,0 STARLINK-3720,1 52136U 22029BA  22184.58334491 -.00411661  00000-0 -27087-1 0  9992,2 52136  53.2175 347.5308 0001464  73.1330 233.1948 15.09220140  1302,6916.719,95.414,539.596,537.571,0.0
52136.0,STARLINK-3720,PAYLOAD,2022-07-03 22:00:00,15.08843026,0.0001394,53.2173,346.0354,79.9307,238.2878,-0.00059845,-9.8e-05,0.0,0 STARLINK-3720,1 52136U 22029BA  22184.91667824 -.00009800  00000-0 -59845-3 0  9995,2 52136  53.2173 346.0354 0001394  79.9307 238.2878 15.08843026  1306,6917.871,95.437,540.7,538.7719999999998,0.0
52136.0,STARLINK-3720,PAYLOAD,2022-07-04 14:00:01,15.08881335,0.0001359,53.2154,343.0327,72.6057,268.8066,-0.003435,-0.00054603,0.0,0 STARLINK-3720,1 52136U 22029BA  22185.58334491 -.00054603  00000-0 -34350-2 0  9994,2 52136  53.2154 343.0327 0001359  72.6057 268.8066 15.08881335 18025,6917.754,95.435,540.559,538.679,0.0
52136.0,STARLINK-3720,PAYLOAD,2022-07-04 22:00:00,15.08821386,0.0001353,53.2151,341.5373,63.5109,289.5277,0.00060533,9.354e-05,0.0,0 STARLINK-3720,1 52136U 22029BA  22185.91667824  .00009354  00000-0  60533-3 0  9994,2 52136  53.2151 341.5373 0001353  63.5109 289.5277 15.08821386  1304,6917.937,95.439,540.738,538.866,0.0
52136.0,STARLINK-3720,PAYLOAD,2022-07-05 14:00:01,15.0881482,0.0001402,53.2155,338.5437,73.053,303.1261,9.9587e-05,1.296e-05,0.0,0 STARLINK-3720,1 52136U 22029BA  22186.58334491  .00001296  00000-0  99587-4 0  9998,2 52136  53.2155 338.5437 0001402  73.0530 303.1261 15.08814820 18178,6917.956999999999,95.439,540.7919999999998,538.852,0.0
52136.0,STARLINK-3720,PAYLOAD,2022-07-05 22:00:00,15.08818547,0.0001473,53.2149,337.0482,66.3571,321.3825,0.0025581,0.00040635,0.0,0 STARLINK-3720,1 52136U 22029BA  22186.91667824  .00040635  00000-0  25581-2 0  9995,2 52136  53.2149 337.0482 0001473  66.3571 321.3825 15.08818547  1308,6917.946,95.439,540.83,538.7919999999998,0.0
52136.0,STARLINK-3720,PAYLOAD,2022-07-06 14:00:01,15.08865987,0.0001445,53.2151,334.0548,74.6445,336.2849,-0.0017315,-0.00027759,0.0,0 STARLINK-3720,1 52136U 22029BA  22187.58334491 -.00027759  00000-0 -17315-2 0  9990,2 52136  53.2151 334.0548 0001445  74.6445 336.2849 15.08865987  1303,6917.801,95.436,540.6659999999998,538.6659999999998,0.0
52136.0,STARLINK-3720,PAYLOAD,2022-07-06 22:00:00,15.08858484,0.0001479,53.215,332.559,67.6898,354.8518,-0.00091132,-0.0001477,0.0,0 STARLINK-3720,1 52136U 22029BA  22187.91667824 -.00014770  00000-0 -91132-3 0  9995,2 52136  53.2150 332.5590 0001479  67.6898 354.8518 15.08858484 18371,6917.824000000001,95.436,540.712,538.6659999999998,0.0
52136.0,STARLINK-3720,PAYLOAD,2022-07-07 02:29:37,15.08848522,0.0001366,53.2156,331.7163,69.8089,290.305,3.0911e-05,2.04e-06,0.0,0 STARLINK-3720,1 52136U 22029BA  22188.10390190  .00000204  00000-0  30911-4 0  9990,2 52136  53.2156 331.7163 0001366  69.8089 290.3050 15.08848522 18406,6917.854,95.437,540.664,538.774,0.0
52136.0,STARLINK-3720,PAYLOAD,2022-07-07 12:01:56,15.08828574,0.0001405,53.2157,329.9324,71.0452,289.0692,0.00015064,2.11e-05,0.0,0 STARLINK-3720,1 52136U 22029BA  22188.50135005  .00002110  00000-0  15064-3 0  9995,2 52136  53.2157 329.9324 0001405  71.0452 289.0692 15.08828574 18466,6917.915,95.438,540.752,538.808,0.0
52136.0,STARLINK-3720,PAYLOAD,2022-07-07 22:00:00,15.08838078,0.0001525,53.2158,328.0696,69.9676,27.3731,0.0011009,0.00017275,0.0,0 STARLINK-3720,1 52136U 22029BA  22188.91667824  .00017275  00000-0  11009-2 0  9991,2 52136  53.2158 328.0696 0001525  69.9676  27.3731 15.08838078  1308,6917.886,95.438,540.806,538.696,0.0
52136.0,STARLINK-3720,PAYLOAD,2022-07-08 06:00:02,15.08838361,0.0001414,53.2157,326.5713,79.4052,29.6175,0.003085,0.0004915,0.0,0 STARLINK-3720,1 52136U 22029BA  22189.25002315  .00049150  00000-0  30850-2 0  9999,2 52136  53.2157 326.5713 0001414  79.4052  29.6175 15.08838361 18570,6917.885,95.438,540.729,538.7719999999998,0.0
52136.0,STARLINK-3720,PAYLOAD,2022-07-08 13:28:06,15.088525199999998,0.0001663,53.2175,325.1746,81.018,279.1,1.8062e-05,-1e-08,0.0,0 STARLINK-3720,1 52136U 22029BA  22189.56118159 -.00000001  00000-0  18062-4 0  9993,2 52136  53.2175 325.1746 0001663  81.0180 279.1000 15.08852520 18626,6917.842,95.437,540.8580000000002,538.557,0.0
52136.0,STARLINK-3720,PAYLOAD,2022-07-08 14:00:01,15.08845237,0.0001435,53.2157,325.0762,75.7,44.86,-0.00096431,-0.00015604,0.0,0 STARLINK-3720,1 52136U 22029BA  22189.58334491 -.00015604  00000-0 -96431-3 0  9995,2 52136  53.2157 325.0762 0001435  75.7000  44.8600 15.08845237 18621,6917.864000000001,95.437,540.722,538.737,0.0
52136.0,STARLINK-3720,PAYLOAD,2022-07-08 22:00:01,15.08852458,0.0001361,53.2153,323.5799,67.7537,64.4646,-0.0015564,-0.00024981,0.0,0 STARLINK-3720,1 52136U 22029BA  22189.91668981 -.00024981  00000-0 -15564-2 0  9991,2 52136  53.2153 323.5799 0001361  67.7537  64.4646 15.08852458  1302,6917.842,95.437,540.649,538.766,0.0
52136.0,STARLINK-3720,PAYLOAD,2022-07-09 14:00:01,15.08835642,0.0001404,53.2155,320.5868,73.5401,81.7672,-0.0040014,-0.00063402,0.0,0 STARLINK-3720,1 52136U 22029BA  22190.58334491 -.00063402  00000-0 -40014-2 0  9991,2 52136  53.2155 320.5868 0001404  73.5401  81.7672 15.08835642  1308,6917.894,95.438,540.73,538.7869999999998,0.0
52136.0,STARLINK-3720,PAYLOAD,2022-07-09 20:00:01,15.08780873,0.0001443,53.2155,319.465,68.2023,5.7878,0.0029971,0.00047656,0.0,0 STARLINK-3720,1 52136U 22029BA  22190.83334491  .00047656  00000-0  29971-2 0  9999,2 52136  53.2155 319.4650 0001443  68.2023   5.7878 15.08780873  1307,6918.061,95.441,540.924,538.928,0.0
52136.0,STARLINK-3720,PAYLOAD,2022-07-10 14:00:01,15.08822703,0.0001478,53.2159,316.0975,71.5739,118.4084,-0.00084105,-0.00013642,0.0,0 STARLINK-3720,1 52136U 22029BA  22191.58334491 -.00013642  00000-0 -84105-3 0  9993,2 52136  53.2159 316.0975 0001478  71.5739 118.4084 15.08822703 18929,6917.933000000001,95.439,540.821,538.776,0.0
52136.0,STARLINK-3720,PAYLOAD,2022-07-10 22:00:00,15.08833023,0.0001459,53.2159,314.6011,67.2442,134.3052,-0.00028233,-4.778e-05,0.0,0 STARLINK-3720,1 52136U 22029BA  22191.91667824 -.00004778  00000-0 -28233-3 0  9999,2 52136  53.2159 314.6011 0001459  67.2442 134.3052 15.08833023  1309,6917.901999999999,95.438,540.776,538.757,0.0
52136.0,STARLINK-3720,PAYLOAD,2022-07-11 06:00:00,15.08817775,0.0001388,53.2162,313.103,75.8203,137.3223,0.0029274,0.00046581,0.0,0 STARLINK-3720,1 52136U 22029BA  22192.25001157  .00046581  00000-0  29274-2 0  9999,2 52136  53.2162 313.1030 0001388  75.8203 137.3223 15.08817775 19026,6917.948,95.439,540.774,538.8530000000002,0.0
52136.0,STARLINK-3720,PAYLOAD,2022-07-11 14:00:01,15.08848072,0.0001494,53.2164,311.6083,69.3695,155.3603,-0.00047516,-7.844e-05,0.0,0 STARLINK-3720,1 52136U 22029BA  22192.58334491 -.00007844  00000-0 -47516-3 0  9996,2 52136  53.2164 311.6083 0001494  69.3695 155.3603 15.08848072  1308,6917.856,95.437,540.754,538.687,0.0
52136.0,STARLINK-3720,PAYLOAD,2022-07-11 22:00:00,15.08864626,0.0001453,53.2164,310.1116,66.7504,169.577,-0.00083111,-0.000135,0.0,0 STARLINK-3720,1 52136U 22029BA  22192.91667824 -.00013500  00000-0 -83111-3 0  9999,2 52136  53.2164 310.1116 0001453  66.7504 169.5770 15.08864626 19128,6917.805,95.436,540.675,538.665,0.0
